{
  "type": "FeatureCollection",
  "features": [
    {
      "type": "Feature",
      "properties": {
        "norad_id": 34425,
        "name": "COSMOS 2251 DEB",
        "group": "cosmos-2251-debris",
        "lat": 13.856997513571523,
        "lon": -156.04561274647946,
        "alt_km": 670.3206604888237,
        "timestamp": "2025-12-26T13:39:19.374294+00:00",
        "meta_object_name": "COSMOS 2251 DEB",
        "meta_object_id": "1993-036RS",
        "meta_epoch": "2025-12-26T03:02:59.608320",
        "meta_mean_motion": 14.62197584,
        "meta_eccentricity": 0.00240677,
        "meta_inclination": 74.0191,
        "meta_ra_of_asc_node": 28.8548,
        "meta_arg_of_pericenter": 151.4637,
        "meta_mean_anomaly": 208.7853,
        "meta_ephemeris_type": 0,
        "meta_classification_type": "U",
        "meta_norad_cat_id": 34425,
        "meta_element_set_no": 999,
        "meta_rev_at_epoch": 88936,
        "meta_bstar": 0.00050597394,
        "meta_mean_motion_dot": 2.529e-05,
        "meta_mean_motion_ddot": 0,
        "tle_line1": "1 34425U 93036RS  25360.12707880  .00002529  00000+0  50597-3 0  9994",
        "tle_line2": "2 34425  74.0191  28.8548 0024067 151.4637 208.7853 14.62197584889367"
      },
      "geometry": {
        "type": "Point",
        "coordinates": [
          -156.04561274647946,
          13.856997513571523
        ]
      }
    },
    {
      "type": "Feature",
      "properties": {
        "norad_id": 34429,
        "name": "COSMOS 2251 DEB",
        "group": "cosmos-2251-debris",
        "lat": -2.285161143075766,
        "lon": 137.14378293962153,
        "alt_km": 416.56152157910765,
        "timestamp": "2025-12-26T13:39:19.374305+00:00",
        "meta_object_name": "COSMOS 2251 DEB",
        "meta_object_id": "1993-036RW",
        "meta_epoch": "2025-12-25T19:41:46.493664",
        "meta_mean_motion": 15.47531411,
        "meta_eccentricity": 0.00141306,
        "meta_inclination": 73.9684,
        "meta_ra_of_asc_node": 139.4433,
        "meta_arg_of_pericenter": 342.6607,
        "meta_mean_anomaly": 167.4573,
        "meta_ephemeris_type": 0,
        "meta_classification_type": "U",
        "meta_norad_cat_id": 34429,
        "meta_element_set_no": 999,
        "meta_rev_at_epoch": 89650,
        "meta_bstar": 0.0054719201,
        "meta_mean_motion_dot": 0.00293252,
        "meta_mean_motion_ddot": 0,
        "tle_line1": "1 34429U 93036RW  25359.82067701  .00293252  00000+0  54719-2 0  9998",
        "tle_line2": "2 34429  73.9684 139.4433 0014130 342.6607 167.4573 15.47531411896508"
      },
      "geometry": {
        "type": "Point",
        "coordinates": [
          137.14378293962153,
          -2.285161143075766
        ]
      }
    },
    {
      "type": "Feature",
      "properties": {
        "norad_id": 34430,
        "name": "COSMOS 2251 DEB",
        "group": "cosmos-2251-debris",
        "lat": -73.65711408836657,
        "lon": 175.05228144480444,
        "alt_km": 757.1437707210143,
        "timestamp": "2025-12-26T13:39:19.374316+00:00",
        "meta_object_name": "COSMOS 2251 DEB",
        "meta_object_id": "1993-036RX",
        "meta_epoch": "2025-12-26T02:24:41.068512",
        "meta_mean_motion": 14.39671247,
        "meta_eccentricity": 0.0060938,
        "meta_inclination": 74.0518,
        "meta_ra_of_asc_node": 278.7106,
        "meta_arg_of_pericenter": 345.2643,
        "meta_mean_anomaly": 14.6732,
        "meta_ephemeris_type": 0,
        "meta_classification_type": "U",
        "meta_norad_cat_id": 34430,
        "meta_element_set_no": 999,
        "meta_rev_at_epoch": 88147,
        "meta_bstar": 0.00044224891,
        "meta_mean_motion_dot": 1.387e-05,
        "meta_mean_motion_ddot": 0,
        "tle_line1": "1 34430U 93036RX  25360.10047533  .00001387  00000+0  44225-3 0  9992",
        "tle_line2": "2 34430  74.0518 278.7106 0060938 345.2643  14.6732 14.39671247881470"
      },
      "geometry": {
        "type": "Point",
        "coordinates": [
          175.05228144480444,
          -73.65711408836657
        ]
      }
    },
    {
      "type": "Feature",
      "properties": {
        "norad_id": 34431,
        "name": "COSMOS 2251 DEB",
        "group": "cosmos-2251-debris",
        "lat": -11.213872974016406,
        "lon": 146.92184424301468,
        "alt_km": 838.6379861638052,
        "timestamp": "2025-12-26T13:39:19.374326+00:00",
        "meta_object_name": "COSMOS 2251 DEB",
        "meta_object_id": "1993-036RY",
        "meta_epoch": "2025-12-25T20:54:23.497920",
        "meta_mean_motion": 14.2881916,
        "meta_eccentricity": 0.0067658,
        "meta_inclination": 74.0741,
        "meta_ra_of_asc_node": 151.4299,
        "meta_arg_of_pericenter": 133.6134,
        "meta_mean_anomaly": 227.0657,
        "meta_ephemeris_type": 0,
        "meta_classification_type": "U",
        "meta_norad_cat_id": 34431,
        "meta_element_set_no": 999,
        "meta_rev_at_epoch": 87330,
        "meta_bstar": 0.00072363,
        "meta_mean_motion_dot": 1.845e-05,
        "meta_mean_motion_ddot": 0,
        "tle_line1": "1 34431U 93036RY  25359.87110530  .00001845  00000+0  72363-3 0  9996",
        "tle_line2": "2 34431  74.0741 151.4299 0067658 133.6134 227.0657 14.28819160873304"
      },
      "geometry": {
        "type": "Point",
        "coordinates": [
          146.92184424301468,
          -11.213872974016406
        ]
      }
    },
    {
      "type": "Feature",
      "properties": {
        "norad_id": 34432,
        "name": "COSMOS 2251 DEB",
        "group": "cosmos-2251-debris",
        "lat": 29.86862692842237,
        "lon": -111.63302060809626,
        "alt_km": 751.8668182242545,
        "timestamp": "2025-12-26T13:39:19.374337+00:00",
        "meta_object_name": "COSMOS 2251 DEB",
        "meta_object_id": "1993-036RZ",
        "meta_epoch": "2025-12-26T06:22:48.525024",
        "meta_mean_motion": 14.0296163,
        "meta_eccentricity": 0.01812166,
        "meta_inclination": 73.8285,
        "meta_ra_of_asc_node": 78.4936,
        "meta_arg_of_pericenter": 159.0356,
        "meta_mean_anomaly": 259.5401,
        "meta_ephemeris_type": 0,
        "meta_classification_type": "U",
        "meta_norad_cat_id": 34432,
        "meta_element_set_no": 999,
        "meta_rev_at_epoch": 85874,
        "meta_bstar": 0.0011246013,
        "meta_mean_motion_dot": 1.992e-05,
        "meta_mean_motion_ddot": 0,
        "tle_line1": "1 34432U 93036RZ  25360.26583941  .00001992  00000+0  11246-2 0  9997",
        "tle_line2": "2 34432  73.8285  78.4936 0181216 159.0356 259.5401 14.02961630858746"
      },
      "geometry": {
        "type": "Point",
        "coordinates": [
          -111.63302060809626,
          29.86862692842237
        ]
      }
    },
    {
      "type": "Feature",
      "properties": {
        "norad_id": 34433,
        "name": "COSMOS 2251 DEB",
        "group": "cosmos-2251-debris",
        "lat": -48.63621972484989,
        "lon": 111.43989899766034,
        "alt_km": 774.5015256360984,
        "timestamp": "2025-12-26T13:39:19.374348+00:00",
        "meta_object_name": "COSMOS 2251 DEB",
        "meta_object_id": "1993-036SA",
        "meta_epoch": "2025-12-25T19:12:11.035008",
        "meta_mean_motion": 14.12911954,
        "meta_eccentricity": 0.0152849,
        "meta_inclination": 74.01,
        "meta_ra_of_asc_node": 131.8065,
        "meta_arg_of_pericenter": 267.1359,
        "meta_mean_anomaly": 91.228,
        "meta_ephemeris_type": 0,
        "meta_classification_type": "U",
        "meta_norad_cat_id": 34433,
        "meta_element_set_no": 999,
        "meta_rev_at_epoch": 86134,
        "meta_bstar": 0.001379,
        "meta_mean_motion_dot": 2.843e-05,
        "meta_mean_motion_ddot": 0,
        "tle_line1": "1 34433U 93036SA  25359.80012772  .00002843  00000+0  13790-2 0  9997",
        "tle_line2": "2 34433  74.0100 131.8065 0152849 267.1359  91.2280 14.12911954861348"
      },
      "geometry": {
        "type": "Point",
        "coordinates": [
          111.43989899766034,
          -48.63621972484989
        ]
      }
    },
    {
      "type": "Feature",
      "properties": {
        "norad_id": 34434,
        "name": "COSMOS 2251 DEB",
        "group": "cosmos-2251-debris",
        "lat": 44.68458117357168,
        "lon": 150.18676020245968,
        "alt_km": 729.4279268365217,
        "timestamp": "2025-12-26T13:39:19.374358+00:00",
        "meta_object_name": "COSMOS 2251 DEB",
        "meta_object_id": "1993-036SB",
        "meta_epoch": "2025-12-26T06:13:00.407136",
        "meta_mean_motion": 13.89888455,
        "meta_eccentricity": 0.02733986,
        "meta_inclination": 74.0626,
        "meta_ra_of_asc_node": 347.1299,
        "meta_arg_of_pericenter": 121.1304,
        "meta_mean_anomaly": 260.9123,
        "meta_ephemeris_type": 0,
        "meta_classification_type": "U",
        "meta_norad_cat_id": 34434,
        "meta_element_set_no": 999,
        "meta_rev_at_epoch": 84154,
        "meta_bstar": 0.0021531557,
        "meta_mean_motion_dot": 3.56e-05,
        "meta_mean_motion_ddot": 0,
        "tle_line1": "1 34434U 93036SB  25360.25903249  .00003560  00000+0  21532-2 0  9997",
        "tle_line2": "2 34434  74.0626 347.1299 0273398 121.1304 260.9123 13.89888455841548"
      },
      "geometry": {
        "type": "Point",
        "coordinates": [
          150.18676020245968,
          44.68458117357168
        ]
      }
    }
  ]
}